[{"OBJECT_NAME":"STARLINK-34706","OBJECT_ID":"2025-152D","EPOCH":"2026-03-09T13:21:56.917728","MEAN_MOTION":15.0566891,"ECCENTRICITY":0.00016781,"INCLINATION":97.6018,"RA_OF_ASC_NODE":285.3179,"ARG_OF_PERICENTER":78.6066,"MEAN_ANOMALY":281.5349,"EPHEMERIS_TYPE":0,"CLASSIFICATION_TYPE":"U","NORAD_CAT_ID":64845,"ELEMENT_SET_NO":999,"REV_AT_EPOCH":3539,"BSTAR":-2.7094144e-5,"MEAN_MOTION_DOT":-4.52e-6,"MEAN_MOTION_DDOT":0},{"OBJECT_NAME":"CZ-6A DEB","OBJECT_ID":"2022-151DD","EPOCH":"2026-03-09T17:22:01.111008","MEAN_MOTION":14.86690016,"ECCENTRICITY":0.00876761,"INCLINATION":98.4579,"RA_OF_ASC_NODE":137.3593,"ARG_OF_PERICENTER":94.708,"MEAN_ANOMALY":266.4154,"EPHEMERIS_TYPE":0,"CLASSIFICATION_TYPE":"U","NORAD_CAT_ID":54358,"ELEMENT_SET_NO":999,"REV_AT_EPOCH":17717,"BSTAR":0.0022043381,"MEAN_MOTION_DOT":0.00021004,"MEAN_MOTION_DDOT":0}]
